{"spkid": "50654543", "covariance": {"labels": ["e", "q", "tp", "node", "peri", "i"], "data": [["9.139901180077114E-15", "-1.076274371498037E-14", "5.155523779030338E-13", "-6.226460594624E-13", "1.821569370520919E-12", "7.195939292741593E-14"], ["-1.076274371498037E-14", "1.26756348232535E-14", "-6.101413276427114E-13", "7.325399863514976E-13", "-2.146101706826881E-12", "-8.479195606184495E-14"], ["5.155523779030338E-13", "-6.101413276427114E-13", "4.816297774193713E-11", "-3.928525821180383E-11", "1.230959904993557E-10", "5.774535786936932E-12"], ["-6.226460594624E-13", "7.325399863514976E-13", "-3.928525821180383E-11", "9.526248231351013E-10", "-1.034965028517148E-9", "-8.785943369450812E-11"], ["1.821569370520919E-12", "-2.146101706826881E-12", "1.230959904993557E-10", "-1.034965028517148E-9", "1.288793437733163E-9", "9.859344041819531E-11"], ["7.195939292741593E-14", "-8.479195606184495E-14", "5.774535786936932E-12", "-8.785943369450812E-11", "9.859344041819531E-11", "1.156252994887522E-11"]], "elements": [{"value": ".2370714803010895", "title": "eccentricity", "units": null, "name": "e", "sigma": 9.56028303978345e-08, "label": "e"}, {"value": ".8394114376690678", "title": "perihelion distance", "units": "au", "sigma": 1.12586121805725e-07, "name": "q", "label": "q"}, {"sigma": 6.93995516858266e-06, "name": "tp", "units": "TDB", "value": "2458655.058997752075", "title": "time of perihelion passage", "label": "tp"}, {"label": "node", "units": "deg", "value": "82.62486360853364", "title": "longitude of the ascending node", "sigma": 3.08646208973171e-05, "name": "om"}, {"value": "258.1530644254518", "title": "argument of perihelion", "units": "deg", "sigma": 3.58997693270188e-05, "name": "w", "label": "peri"}, {"sigma": 3.4003720309512e-06, "name": "i", "title": "inclination", "value": "1.958105109260478", "units": "deg", "label": "i"}], "epoch": "2458591.5"}, "elements": [{"sigma": "9.5279E-8", "name": "e", "title": "eccentricity", "value": ".2374357990283806", "units": null, "label": "e"}, {"sigma": "1.0436E-8", "name": "a", "title": "semi-major axis", "value": "1.102774577072773", "units": "au", "label": "a"}, {"sigma": "1.1291E-7", "name": "q", "value": ".8409364142173144", "title": "perihelion distance", "units": "au", "label": "q"}, {"label": "i", "sigma": "3.3607E-6", "name": "i", "value": "1.968909486209868", "title": "inclination; angle with respect to x-y ecliptic plane", "units": "deg"}, {"label": "node", "title": "longitude of the ascending node", "value": "82.53265699885607", "units": "deg", "sigma": "3.0532E-5", "name": "om"}, {"units": "deg", "title": "argument of perihelion", "value": "257.6388032788128", "sigma": "3.5791E-5", "name": "w", "label": "peri"}, {"label": "M", "sigma": "2.5487E-5", "name": "ma", "title": "mean anomaly", "value": "7.97043607639398", "units": "deg"}, {"sigma": "2.9815E-5", "name": "tp", "units": "TDB", "value": "2461191.134992545671", "title": "time of perihelion passage", "label": "tp"}, {"label": "period", "value": "422.9884853532114", "title": "sidereal orbital period", "units": "d", "name": "per", "sigma": "6.0043E-6"}, {"label": "n", "units": "deg/d", "value": ".8510869975559414", "title": "mean motion", "name": "n", "sigma": "1.2081E-8"}, {"units": "au", "title": "aphelion distance", "value": "1.364612739928231", "sigma": "1.2914E-8", "name": "ad", "label": "Q"}], "epoch": "2461200.5"}